*******************************************************************************
Ephemeris / WWW_USER Wed Mar 14 15:40:42 2018 Pasadena, USA      / Horizons    
*******************************************************************************
Target body name: Amalthea (505)                  {source: jup310}
Center body name: Solar System Barycenter (0)     {source: DE431mx}
Center-site name: BODY CENTER
*******************************************************************************
Start time      : A.D. 2000-Jan-01 00:00:00.0000 TDB
Stop  time      : A.D. 2001-Jan-01 00:00:00.0000 TDB
Step-size       : 7200 minutes
*******************************************************************************
Center geodetic : 0.00000000,0.00000000,0.0000000 {E-lon(deg),Lat(deg),Alt(km)}
Center cylindric: 0.00000000,0.00000000,0.0000000 {E-lon(deg),Dxy(km),Dz(km)}
Center radii    : (undefined)                                                  
Output units    : AU-D                                                         
Output type     : GEOMETRIC cartesian states
Output format   : 2 (position and velocity)
Reference frame : ICRF/J2000.0                                                 
Coordinate systm: Ecliptic and Mean Equinox of Reference Epoch                 
*******************************************************************************
JDTDB
   X     Y     Z
   VX    VY    VZ
*******************************************************************************
$$SOE
2451754.500000000 = A.D. 2000-Jul-29 00:00:00.0000 TDB 
   2.845283221180383E+00  4.106098402789946E+00 -8.077074753822379E-02
   7.379239971035475E-03 -2.286996311363782E-03  1.440615857603493E-05
2451759.500000000 = A.D. 2000-Aug-03 00:00:00.0000 TDB 
   2.813981160807031E+00  4.129158164113068E+00 -8.016259341985470E-02
   8.569058928806017E-03  9.585612634707686E-04  1.211844342756745E-04
2451764.500000000 = A.D. 2000-Aug-08 00:00:00.0000 TDB 
   2.782528888994967E+00  4.152035854954510E+00 -7.954803225393457E-02
   8.975955747938890E-03  4.395955884418236E-03  2.408399233020424E-04
2451769.500000000 = A.D. 2000-Aug-13 00:00:00.0000 TDB 
   2.750911059385063E+00  4.174735095002600E+00 -7.892651271640586E-02
   8.574570465206752E-03  7.839704983299068E-03  3.688654520964272E-04
2451774.500000000 = A.D. 2000-Aug-18 00:00:00.0000 TDB 
   2.719118098850297E+00  4.197248025040233E+00 -7.829779138123268E-02
   7.389514913446216E-03  1.110947072148846E-02  4.976996125481817E-04
2451779.500000000 = A.D. 2000-Aug-23 00:00:00.0000 TDB 
   2.687138713532714E+00  4.219569332182206E+00 -7.766168919079348E-02
   5.479296219847951E-03  1.402955996731865E-02  6.167923916175620E-04
2451784.500000000 = A.D. 2000-Aug-28 00:00:00.0000 TDB 
   2.654959479257760E+00  4.241694135537323E+00 -7.701825801665178E-02
   2.942026401243117E-03  1.644303316408831E-02  7.142243150034855E-04
2451789.500000000 = A.D. 2000-Sep-02 00:00:00.0000 TDB 
   2.622573871416246E+00  4.263608572499064E+00 -7.636807916145785E-02
  -9.182032331836301E-05  1.822164839843391E-02  7.784206681404668E-04
2451794.500000000 = A.D. 2000-Sep-07 00:00:00.0000 TDB 
   2.589977562744439E+00  4.285296458795787E+00 -7.571208958756438E-02
  -3.461460984421871E-03  1.926984376478357E-02  8.000852835583945E-04
2451799.500000000 = A.D. 2000-Sep-12 00:00:00.0000 TDB 
   2.557166702802977E+00  4.306747123020534E+00 -7.505127510662248E-02
  -6.993229659585174E-03  1.952991655841139E-02  7.737103413899632E-04
2451804.500000000 = A.D. 2000-Sep-17 00:00:00.0000 TDB 
   2.524141127069928E+00  4.327945388299005E+00 -7.438688791538606E-02
  -1.050461197796649E-02  1.898582288937088E-02  6.988739907379024E-04
2451809.500000000 = A.D. 2000-Sep-22 00:00:00.0000 TDB 
   2.490907043091938E+00  4.348870677271849E+00 -7.372029062562750E-02
  -1.380912743886084E-02  1.766421237267428E-02  5.806741113270380E-04
2451814.500000000 = A.D. 2000-Sep-27 00:00:00.0000 TDB 
   2.457471498283012E+00  4.369511880604023E+00 -7.305239426826275E-02
  -1.673566897702641E-02  1.562931975603763E-02  4.289590209935000E-04
2451819.500000000 = A.D. 2000-Oct-02 00:00:00.0000 TDB 
   2.423842026148228E+00  4.389858648653835E+00 -7.238383752939151E-02
  -1.913543716465653E-02  1.298571269182869E-02  2.574309988427215E-04
2451824.500000000 = A.D. 2000-Oct-07 00:00:00.0000 TDB 
   2.390034325380149E+00  4.409895458862810E+00 -7.171502714380955E-02
  -2.088041280541284E-02  9.871311294417871E-03  8.173345227839731E-05
2451829.500000000 = A.D. 2000-Oct-12 00:00:00.0000 TDB 
   2.356063560842832E+00  4.429614761254395E+00 -7.104579701761737E-02
  -2.188179337387561E-02  6.445969176851549E-03 -8.285809314250861E-05
2451834.500000000 = A.D. 2000-Oct-17 00:00:00.0000 TDB 
   2.321943140755967E+00  4.449015250788547E+00 -7.037551844800068E-02
  -2.208888992495479E-02  2.884858170416790E-03 -2.233311235574596E-04
2451839.500000000 = A.D. 2000-Oct-22 00:00:00.0000 TDB 
   2.287691014241812E+00  4.468092918095103E+00 -6.970344643174750E-02
  -2.149132493198874E-02 -6.250367942268345E-04 -3.302712545420923E-04
2451844.500000000 = A.D. 2000-Oct-27 00:00:00.0000 TDB 
   2.253324568156256E+00  4.486846331211787E+00 -6.902872890854531E-02
  -2.012155448980120E-02 -3.903833736478633E-03 -3.991058883861081E-04
2451849.500000000 = A.D. 2000-Nov-01 00:00:00.0000 TDB 
   2.218858054017945E+00  4.505285175626247E+00 -6.835028064078731E-02
  -1.805371122649671E-02 -6.781265177818389E-03 -4.298683424025503E-04
2451854.500000000 = A.D. 2000-Nov-06 00:00:00.0000 TDB 
   2.184304304973553E+00  4.523417485044609E+00 -6.766732415620348E-02
  -1.540044787622325E-02 -9.109923098985924E-03 -4.266227390758928E-04
2451859.500000000 = A.D. 2000-Nov-11 00:00:00.0000 TDB 
   2.149677296353770E+00  4.541247971945683E+00 -6.697947517096263E-02
  -1.229633074052827E-02 -1.076700909368901E-02 -3.958228711458926E-04
2451864.500000000 = A.D. 2000-Nov-16 00:00:00.0000 TDB 
   2.114985268484915E+00  4.558792586375348E+00 -6.628635305945972E-02
  -8.909074040302284E-03 -1.166926906744709E-02 -3.451914719805367E-04
2451869.500000000 = A.D. 2000-Nov-21 00:00:00.0000 TDB 
   2.080231336880059E+00  4.576066717197481E+00 -6.558791333586847E-02
  -5.418888862082321E-03 -1.177500853559047E-02 -2.818637841121860E-04
2451874.500000000 = A.D. 2000-Nov-26 00:00:00.0000 TDB 
   2.045420338483839E+00  4.593079719614945E+00 -6.488446480775195E-02
  -2.008226783304238E-03 -1.107688481658453E-02 -2.108528257862661E-04
2451879.500000000 = A.D. 2000-Dec-01 00:00:00.0000 TDB 
   2.010551450855421E+00  4.609845633410647E+00 -6.417625662405631E-02
   1.142609404334390E-03 -9.617974390801321E-03 -1.349718322305699E-04
2451884.500000000 = A.D. 2000-Dec-06 00:00:00.0000 TDB 
   1.975618771624356E+00  4.626380748654021E+00 -6.346341054256890E-02
   3.864137831295776E-03 -7.475687635251404E-03 -5.445448421334131E-05
2451889.500000000 = A.D. 2000-Dec-11 00:00:00.0000 TDB 
   1.940616156764686E+00  4.642693400849073E+00 -6.274612047117248E-02
   6.012712615106504E-03 -4.765323033585146E-03  3.218678398953629E-05
2451894.500000000 = A.D. 2000-Dec-16 00:00:00.0000 TDB 
   1.905535532948346E+00  4.658788258258974E+00 -6.202443158952179E-02
   7.478059743617933E-03 -1.633274054282429E-03  1.269461144946495E-04
2451899.500000000 = A.D. 2000-Dec-21 00:00:00.0000 TDB 
   1.870364528395892E+00  4.674675974827630E+00 -6.129794423481917E-02
   8.178416799567300E-03  1.752765534822789E-03  2.308920053276850E-04
2451904.500000000 = A.D. 2000-Dec-26 00:00:00.0000 TDB 
   1.835089891801599E+00  4.690358929184114E+00 -6.056630739217968E-02
   8.075336851262637E-03  5.211834979509276E-03  3.430203839551105E-04
2451909.500000000 = A.D. 2000-Dec-31 00:00:00.0000 TDB 
   1.799701810238423E+00  4.705830850640418E+00 -5.982926898501684E-02
   7.174995182580685E-03  8.560547239923444E-03  4.594776161283948E-04
